FLOCK 4G-30             
1 62679U 25009BY  26068.70871344  .00013147  00000+0  49475-3 0  9999
2 62679  97.3969 150.6012 0003795 342.4152  17.6955 15.27244548121341
STARLINK-34050          
1 64331U 25124Q   26068.45214715  .00022104  00000+0  81013-3 0  9996
2 64331  42.9993 123.0924 0000671 244.0897 115.9885 15.27588946 42800
